[{"OBJECT_NAME":"ONEWEB-0245","OBJECT_ID":"2021-045M","EPOCH":"2025-10-06T00:50:26.771712","MEAN_MOTION":13.15548845,"ECCENTRICITY":0.0001958,"INCLINATION":87.8988,"RA_OF_ASC_NODE":309.9087,"ARG_OF_PERICENTER":100.8675,"MEAN_ANOMALY":259.2676,"EPHEMERIS_TYPE":0,"CLASSIFICATION_TYPE":"U","NORAD_CAT_ID":48778,"ELEMENT_SET_NO":999,"REV_AT_EPOCH":21096,"BSTAR":-0.00027596,"MEAN_MOTION_DOT":-9.1e-7,"MEAN_MOTION_DDOT":0},{"OBJECT_NAME":"ONEWEB-0229","OBJECT_ID":"2021-045N","EPOCH":"2025-10-06T02:33:06.968160","MEAN_MOTION":13.15547721,"ECCENTRICITY":0.0001739,"INCLINATION":87.8981,"RA_OF_ASC_NODE":309.893,"ARG_OF_PERICENTER":96.9477,"MEAN_ANOMALY":263.1851,"EPHEMERIS_TYPE":0,"CLASSIFICATION_TYPE":"U","NORAD_CAT_ID":48779,"ELEMENT_SET_NO":999,"REV_AT_EPOCH":21100,"BSTAR":-0.00023199,"MEAN_MOTION_DOT":-7.5e-7,"MEAN_MOTION_DDOT":0},{"OBJECT_NAME":"ONEWEB-0228","OBJECT_ID":"2021-045P","EPOCH":"2025-10-06T01:31:42.801312","MEAN_MOTION":13.15547442,"ECCENTRICITY":0.0001801,"INCLINATION":87.8992,"RA_OF_ASC_NODE":309.88,"ARG_OF_PERICENTER":97.6866,"MEAN_ANOMALY":262.4469,"EPHEMERIS_TYPE":0,"CLASSIFICATION_TYPE":"U","NORAD_CAT_ID":48780,"ELEMENT_SET_NO":999,"REV_AT_EPOCH":21091,"BSTAR":0.00015697,"MEAN_MOTION_DOT":7.2e-7,"MEAN_MOTION_DDOT":0},{"OBJECT_NAME":"ONEWEB-0232","OBJECT_ID":"2021-045Q","EPOCH":"2025-10-06T00:55:00.956928","MEAN_MOTION":13.15547691,"ECCENTRICITY":0.0001809,"INCLINATION":87.899,"RA_OF_ASC_NODE":309.8764,"ARG_OF_PERICENTER":95.4625,"MEAN_ANOMALY":264.6712,"EPHEMERIS_TYPE":0,"CLASSIFICATION_TYPE":"U","NORAD_CAT_ID":48781,"ELEMENT_SET_NO":999,"REV_AT_EPOCH":21123,"BSTAR":-0.00016983,"MEAN_MOTION_DOT":-5.1e-7,"MEAN_MOTION_DDOT":0},{"OBJECT_NAME":"ONEWEB-0231","OBJECT_ID":"2021-045R","EPOCH":"2025-10-06T04:02:06.827712","MEAN_MOTION":13.15547765,"ECCENTRICITY":0.0001584,"INCLINATION":87.8983,"RA_OF_ASC_NODE":309.9009,"ARG_OF_PERICENTER":100.6974,"MEAN_ANOMALY":259.4335,"EPHEMERIS_TYPE":0,"CLASSIFICATION_TYPE":"U","NORAD_CAT_ID":48782,"ELEMENT_SET_NO":999,"REV_AT_EPOCH":21094,"BSTAR":9.7243e-5,"MEAN_MOTION_DOT":4.9e-7,"MEAN_MOTION_DDOT":0},{"OBJECT_NAME":"ONEWEB-0234","OBJECT_ID":"2021-045S","EPOCH":"2025-10-06T01:17:37.679712","MEAN_MOTION":13.15547774,"ECCENTRICITY":0.0002751,"INCLINATION":87.8988,"RA_OF_ASC_NODE":309.8941,"ARG_OF_PERICENTER":96.4189,"MEAN_ANOMALY":263.7255,"EPHEMERIS_TYPE":0,"CLASSIFICATION_TYPE":"U","NORAD_CAT_ID":48783,"ELEMENT_SET_NO":999,"REV_AT_EPOCH":21106,"BSTAR":0.00014758,"MEAN_MOTION_DOT":6.8e-7,"MEAN_MOTION_DDOT":0},{"OBJECT_NAME":"ONEWEB-0238","OBJECT_ID":"2021-045T","EPOCH":"2025-10-06T01:18:00.794304","MEAN_MOTION":13.15547133,"ECCENTRICITY":0.0002247,"INCLINATION":87.8987,"RA_OF_ASC_NODE":309.8894,"ARG_OF_PERICENTER":94.4675,"MEAN_ANOMALY":265.6712,"EPHEMERIS_TYPE":0,"CLASSIFICATION_TYPE":"U","NORAD_CAT_ID":48784,"ELEMENT_SET_NO":999,"REV_AT_EPOCH":21096,"BSTAR":0.00032945,"MEAN_MOTION_DOT":1.37e-6,"MEAN_MOTION_DDOT":0},{"OBJECT_NAME":"ONEWEB-0240","OBJECT_ID":"2021-045U","EPOCH":"2025-10-06T03:38:07.586880","MEAN_MOTION":13.1555178,"ECCENTRICITY":0.0001935,"INCLINATION":87.8991,"RA_OF_ASC_NODE":309.8564,"ARG_OF_PERICENTER":105.7829,"MEAN_ANOMALY":254.3515,"EPHEMERIS_TYPE":0,"CLASSIFICATION_TYPE":"U","NORAD_CAT_ID":48785,"ELEMENT_SET_NO":999,"REV_AT_EPOCH":21100,"BSTAR":0.00068421,"MEAN_MOTION_DOT":2.7e-6,"MEAN_MOTION_DDOT":0},{"OBJECT_NAME":"ONEWEB-0246","OBJECT_ID":"2021-045V","EPOCH":"2025-10-06T03:30:09.194400","MEAN_MOTION":13.15546811,"ECCENTRICITY":0.0001675,"INCLINATION":87.8995,"RA_OF_ASC_NODE":309.8705,"ARG_OF_PERICENTER":95.1565,"MEAN_ANOMALY":264.9756,"EPHEMERIS_TYPE":0,"CLASSIFICATION_TYPE":"U","NORAD_CAT_ID":48786,"ELEMENT_SET_NO":999,"REV_AT_EPOCH":21087,"BSTAR":0.00037003,"MEAN_MOTION_DOT":1.52e-6,"MEAN_MOTION_DDOT":0},{"OBJECT_NAME":"ONEWEB-0210","OBJECT_ID":"2021-045W","EPOCH":"2025-10-06T01:04:07.539744","MEAN_MOTION":13.15547341,"ECCENTRICITY":0.000126,"INCLINATION":87.8994,"RA_OF_ASC_NODE":309.8899,"ARG_OF_PERICENTER":106.1664,"MEAN_ANOMALY":253.9605,"EPHEMERIS_TYPE":0,"CLASSIFICATION_TYPE":"U","NORAD_CAT_ID":48787,"ELEMENT_SET_NO":999,"REV_AT_EPOCH":21090,"BSTAR":-0.00024587,"MEAN_MOTION_DOT":-8.0e-7,"MEAN_MOTION_DDOT":0},{"OBJECT_NAME":"ONEWEB-0214","OBJECT_ID":"2021-045X","EPOCH":"2025-10-06T01:16:39.332064","MEAN_MOTION":13.15547798,"ECCENTRICITY":0.0001375,"INCLINATION":87.8994,"RA_OF_ASC_NODE":309.8753,"ARG_OF_PERICENTER":94.3367,"MEAN_ANOMALY":265.792,"EPHEMERIS_TYPE":0,"CLASSIFICATION_TYPE":"U","NORAD_CAT_ID":48788,"ELEMENT_SET_NO":999,"REV_AT_EPOCH":21087,"BSTAR":-0.00057337,"MEAN_MOTION_DOT":-2.03e-6,"MEAN_MOTION_DDOT":0},{"OBJECT_NAME":"ONEWEB-0221","OBJECT_ID":"2021-045Y","EPOCH":"2025-10-06T01:26:57.226848","MEAN_MOTION":13.15546996,"ECCENTRICITY":0.0001741,"INCLINATION":87.8984,"RA_OF_ASC_NODE":309.8979,"ARG_OF_PERICENTER":102.8725,"MEAN_ANOMALY":257.26,"EPHEMERIS_TYPE":0,"CLASSIFICATION_TYPE":"U","NORAD_CAT_ID":48789,"ELEMENT_SET_NO":999,"REV_AT_EPOCH":21096,"BSTAR":0.0019152,"MEAN_MOTION_DOT":7.34e-6,"MEAN_MOTION_DDOT":0},{"OBJECT_NAME":"ONEWEB-0213","OBJECT_ID":"2021-045Z","EPOCH":"2025-10-06T01:10:57.836064","MEAN_MOTION":13.15547002,"ECCENTRICITY":0.0001679,"INCLINATION":87.8986,"RA_OF_ASC_NODE":309.909,"ARG_OF_PERICENTER":100.8621,"MEAN_ANOMALY":259.2698,"EPHEMERIS_TYPE":0,"CLASSIFICATION_TYPE":"U","NORAD_CAT_ID":48790,"ELEMENT_SET_NO":999,"REV_AT_EPOCH":21102,"BSTAR":-2.6442e-5,"MEAN_MOTION_DOT":3.0e-8,"MEAN_MOTION_DDOT":0},{"OBJECT_NAME":"ONEWEB-0212","OBJECT_ID":"2021-045AA","EPOCH":"2025-10-06T02:27:23.626656","MEAN_MOTION":13.15550706,"ECCENTRICITY":0.0001907,"INCLINATION":87.8997,"RA_OF_ASC_NODE":309.8826,"ARG_OF_PERICENTER":95.7679,"MEAN_ANOMALY":264.3669,"EPHEMERIS_TYPE":0,"CLASSIFICATION_TYPE":"U","NORAD_CAT_ID":48791,"ELEMENT_SET_NO":999,"REV_AT_EPOCH":21102,"BSTAR":8.7767e-5,"MEAN_MOTION_DOT":4.6e-7,"MEAN_MOTION_DDOT":0},{"OBJECT_NAME":"ONEWEB-0227","OBJECT_ID":"2021-045AB","EPOCH":"2025-10-06T02:26:16.937088","MEAN_MOTION":13.15548298,"ECCENTRICITY":0.0001838,"INCLINATION":87.8987,"RA_OF_ASC_NODE":309.8996,"ARG_OF_PERICENTER":99.0543,"MEAN_ANOMALY":261.0795,"EPHEMERIS_TYPE":0,"CLASSIFICATION_TYPE":"U","NORAD_CAT_ID":48792,"ELEMENT_SET_NO":999,"REV_AT_EPOCH":21097,"BSTAR":-2.7545e-5,"MEAN_MOTION_DOT":2.0e-8,"MEAN_MOTION_DDOT":0},{"OBJECT_NAME":"ONEWEB-0226","OBJECT_ID":"2021-045AC","EPOCH":"2025-10-06T02:17:08.581344","MEAN_MOTION":13.1554677,"ECCENTRICITY":0.0001533,"INCLINATION":87.8994,"RA_OF_ASC_NODE":309.9087,"ARG_OF_PERICENTER":100.9163,"MEAN_ANOMALY":259.214,"EPHEMERIS_TYPE":0,"CLASSIFICATION_TYPE":"U","NORAD_CAT_ID":48793,"ELEMENT_SET_NO":999,"REV_AT_EPOCH":21094,"BSTAR":0.00025937,"MEAN_MOTION_DOT":1.1e-6,"MEAN_MOTION_DDOT":0},{"OBJECT_NAME":"ONEWEB-0224","OBJECT_ID":"2021-045AD","EPOCH":"2025-10-06T01:24:40.637088","MEAN_MOTION":13.15548839,"ECCENTRICITY":0.0002561,"INCLINATION":87.8982,"RA_OF_ASC_NODE":309.9508,"ARG_OF_PERICENTER":113.726,"MEAN_ANOMALY":246.4139,"EPHEMERIS_TYPE":0,"CLASSIFICATION_TYPE":"U","NORAD_CAT_ID":48794,"ELEMENT_SET_NO":999,"REV_AT_EPOCH":21086,"BSTAR":0.00022249,"MEAN_MOTION_DOT":9.7e-7,"MEAN_MOTION_DDOT":0},{"OBJECT_NAME":"ONEWEB-0233","OBJECT_ID":"2021-045AE","EPOCH":"2025-10-06T01:31:18.237792","MEAN_MOTION":13.15546687,"ECCENTRICITY":0.0001823,"INCLINATION":87.8987,"RA_OF_ASC_NODE":309.9611,"ARG_OF_PERICENTER":105.9107,"MEAN_ANOMALY":254.2225,"EPHEMERIS_TYPE":0,"CLASSIFICATION_TYPE":"U","NORAD_CAT_ID":48795,"ELEMENT_SET_NO":999,"REV_AT_EPOCH":21088,"BSTAR":0.00042887,"MEAN_MOTION_DOT":1.74e-6,"MEAN_MOTION_DDOT":0},{"OBJECT_NAME":"ONEWEB-0190","OBJECT_ID":"2021-045AF","EPOCH":"2025-10-06T01:13:15.288960","MEAN_MOTION":13.15547585,"ECCENTRICITY":0.0001486,"INCLINATION":87.8982,"RA_OF_ASC_NODE":309.9261,"ARG_OF_PERICENTER":120.6164,"MEAN_ANOMALY":239.5113,"EPHEMERIS_TYPE":0,"CLASSIFICATION_TYPE":"U","NORAD_CAT_ID":48796,"ELEMENT_SET_NO":999,"REV_AT_EPOCH":21095,"BSTAR":-5.1549e-5,"MEAN_MOTION_DOT":-7.0e-8,"MEAN_MOTION_DDOT":0},{"OBJECT_NAME":"ONEWEB-0236","OBJECT_ID":"2021-045AG","EPOCH":"2025-10-06T03:27:52.367040","MEAN_MOTION":13.15547149,"ECCENTRICITY":0.0001975,"INCLINATION":87.8984,"RA_OF_ASC_NODE":309.9184,"ARG_OF_PERICENTER":93.6056,"MEAN_ANOMALY":266.5301,"EPHEMERIS_TYPE":0,"CLASSIFICATION_TYPE":"U","NORAD_CAT_ID":48797,"ELEMENT_SET_NO":999,"REV_AT_EPOCH":21085,"BSTAR":5.071e-6,"MEAN_MOTION_DOT":1.5e-7,"MEAN_MOTION_DDOT":0},{"OBJECT_NAME":"ONEWEB-0248","OBJECT_ID":"2021-045AH","EPOCH":"2025-10-06T03:46:07.546656","MEAN_MOTION":13.15546278,"ECCENTRICITY":0.0001988,"INCLINATION":87.8997,"RA_OF_ASC_NODE":309.8728,"ARG_OF_PERICENTER":114.7509,"MEAN_ANOMALY":245.3828,"EPHEMERIS_TYPE":0,"CLASSIFICATION_TYPE":"U","NORAD_CAT_ID":48798,"ELEMENT_SET_NO":999,"REV_AT_EPOCH":21101,"BSTAR":0.0005456,"MEAN_MOTION_DOT":2.18e-6,"MEAN_MOTION_DDOT":0},{"OBJECT_NAME":"ONEWEB-0225","OBJECT_ID":"2021-045AJ","EPOCH":"2025-10-06T02:28:32.809728","MEAN_MOTION":13.15546952,"ECCENTRICITY":0.0001554,"INCLINATION":87.8992,"RA_OF_ASC_NODE":309.9128,"ARG_OF_PERICENTER":114.2204,"MEAN_ANOMALY":245.9089,"EPHEMERIS_TYPE":0,"CLASSIFICATION_TYPE":"U","NORAD_CAT_ID":48799,"ELEMENT_SET_NO":999,"REV_AT_EPOCH":21101,"BSTAR":-0.00025367,"MEAN_MOTION_DOT":-8.3e-7,"MEAN_MOTION_DDOT":0},{"OBJECT_NAME":"ONEWEB-0215","OBJECT_ID":"2021-045AK","EPOCH":"2025-10-06T03:34:44.102784","MEAN_MOTION":13.15548334,"ECCENTRICITY":0.0001816,"INCLINATION":87.8997,"RA_OF_ASC_NODE":309.8574,"ARG_OF_PERICENTER":119.2464,"MEAN_ANOMALY":240.8848,"EPHEMERIS_TYPE":0,"CLASSIFICATION_TYPE":"U","NORAD_CAT_ID":48800,"ELEMENT_SET_NO":999,"REV_AT_EPOCH":21089,"BSTAR":0.00049556,"MEAN_MOTION_DOT":1.99e-6,"MEAN_MOTION_DDOT":0},{"OBJECT_NAME":"ONEWEB-0216","OBJECT_ID":"2021-045AL","EPOCH":"2025-10-06T03:48:25.473888","MEAN_MOTION":13.15548584,"ECCENTRICITY":0.0001622,"INCLINATION":87.8989,"RA_OF_ASC_NODE":309.8941,"ARG_OF_PERICENTER":93.2342,"MEAN_ANOMALY":266.8974,"EPHEMERIS_TYPE":0,"CLASSIFICATION_TYPE":"U","NORAD_CAT_ID":48801,"ELEMENT_SET_NO":999,"REV_AT_EPOCH":21090,"BSTAR":0.00035927,"MEAN_MOTION_DOT":1.48e-6,"MEAN_MOTION_DDOT":0}]
